CCSDS_OMM_VERS = 2.0
CREATION_DATE  = 
ORIGINATOR     = 

OBJECT_NAME    = SL-3 R/B
OBJECT_ID      = 1982-079B
CENTER_NAME    = EARTH
REF_FRAME      = TEME
TIME_SYSTEM    = UTC
MEAN_ELEMENT_THEORY = SGP/SGP4

EPOCH          = 2025-12-23T02:56:52.965600
MEAN_MOTION    = 15.23703692
ECCENTRICITY   = .00269525
INCLINATION    = 81.1481
RA_OF_ASC_NODE = 283.4212
ARG_OF_PERICENTER = 65.7376
MEAN_ANOMALY   = 294.6668

EPHEMERIS_TYPE = 0
CLASSIFICATION_TYPE = U
NORAD_CAT_ID   = 13403
ELEMENT_SET_NO = 999
REV_AT_EPOCH   = 36603
BSTAR          = .25530776E-3
MEAN_MOTION_DOT = .6217E-4
MEAN_MOTION_DDOT = 0

CCSDS_OMM_VERS = 2.0
CREATION_DATE  = 
ORIGINATOR     = 

OBJECT_NAME    = SL-14 R/B
OBJECT_ID      = 1982-092B
CENTER_NAME    = EARTH
REF_FRAME      = TEME
TIME_SYSTEM    = UTC
MEAN_ELEMENT_THEORY = SGP/SGP4

EPOCH          = 2025-12-23T03:00:41.369184
MEAN_MOTION    = 14.86565135
ECCENTRICITY   = .00199684
INCLINATION    = 82.5673
RA_OF_ASC_NODE = 212.9989
ARG_OF_PERICENTER = 191.1317
MEAN_ANOMALY   = 292.6966

EPHEMERIS_TYPE = 0
CLASSIFICATION_TYPE = U
NORAD_CAT_ID   = 13553
ELEMENT_SET_NO = 999
REV_AT_EPOCH   = 31755
BSTAR          = .47948963E-4
MEAN_MOTION_DOT = .451E-5
MEAN_MOTION_DDOT = 0

CCSDS_OMM_VERS = 2.0
CREATION_DATE  = 
ORIGINATOR     = 

OBJECT_NAME    = SL-3 R/B
OBJECT_ID      = 1983-010B
CENTER_NAME    = EARTH
REF_FRAME      = TEME
TIME_SYSTEM    = UTC
MEAN_ELEMENT_THEORY = SGP/SGP4

EPOCH          = 2025-12-22T08:47:10.817952
MEAN_MOTION    = 15.43703186
ECCENTRICITY   = .00166576
INCLINATION    = 81.1051
RA_OF_ASC_NODE = 96.8674
ARG_OF_PERICENTER = 317.0227
MEAN_ANOMALY   = 42.9714

EPHEMERIS_TYPE = 0
CLASSIFICATION_TYPE = U
NORAD_CAT_ID   = 13819
ELEMENT_SET_NO = 999
REV_AT_EPOCH   = 34600
BSTAR          = .34829896E-3
MEAN_MOTION_DOT = .15834E-3
MEAN_MOTION_DDOT = 0

CCSDS_OMM_VERS = 2.0
CREATION_DATE  = 
ORIGINATOR     = 

OBJECT_NAME    = SL-3 R/B
OBJECT_ID      = 1983-075B
CENTER_NAME    = EARTH
REF_FRAME      = TEME
TIME_SYSTEM    = UTC
MEAN_ELEMENT_THEORY = SGP/SGP4

EPOCH          = 2025-12-23T01:53:30.132672
MEAN_MOTION    = 15.36332560
ECCENTRICITY   = .0023826
INCLINATION    = 97.6106
RA_OF_ASC_NODE = 353.9103
ARG_OF_PERICENTER = 139.4980
MEAN_ANOMALY   = 220.8043

EPHEMERIS_TYPE = 0
CLASSIFICATION_TYPE = U
NORAD_CAT_ID   = 14208
ELEMENT_SET_NO = 999
REV_AT_EPOCH   = 31838
BSTAR          = .32060626E-3
MEAN_MOTION_DOT = .11382E-3
MEAN_MOTION_DDOT = 0

CCSDS_OMM_VERS = 2.0
CREATION_DATE  = 
ORIGINATOR     = 

OBJECT_NAME    = COSMOS 1536
OBJECT_ID      = 1984-013A
CENTER_NAME    = EARTH
REF_FRAME      = TEME
TIME_SYSTEM    = UTC
MEAN_ELEMENT_THEORY = SGP/SGP4

EPOCH          = 2025-12-22T22:15:16.304256
MEAN_MOTION    = 15.22630662
ECCENTRICITY   = .0014323
INCLINATION    = 82.5442
RA_OF_ASC_NODE = 184.0602
ARG_OF_PERICENTER = 187.8294
MEAN_ANOMALY   = 172.2722

EPHEMERIS_TYPE = 0
CLASSIFICATION_TYPE = U
NORAD_CAT_ID   = 14699
ELEMENT_SET_NO = 999
REV_AT_EPOCH   = 26093
BSTAR          = .29739E-3
MEAN_MOTION_DOT = .6966E-4
MEAN_MOTION_DDOT = 0

CCSDS_OMM_VERS = 2.0
CREATION_DATE  = 
ORIGINATOR     = 

OBJECT_NAME    = SL-14 R/B
OBJECT_ID      = 1984-027B
CENTER_NAME    = EARTH
REF_FRAME      = TEME
TIME_SYSTEM    = UTC
MEAN_ELEMENT_THEORY = SGP/SGP4

EPOCH          = 2025-12-22T23:50:40.403616
MEAN_MOTION    = 14.85884843
ECCENTRICITY   = .00167689
INCLINATION    = 82.5420
RA_OF_ASC_NODE = 316.9400
ARG_OF_PERICENTER = 223.9048
MEAN_ANOMALY   = 136.0837

EPHEMERIS_TYPE = 0
CLASSIFICATION_TYPE = U
NORAD_CAT_ID   = 14820
ELEMENT_SET_NO = 999
REV_AT_EPOCH   = 23624
BSTAR          = .55211922E-4
MEAN_MOTION_DOT = .506E-5
MEAN_MOTION_DDOT = 0

CCSDS_OMM_VERS = 2.0
CREATION_DATE  = 
ORIGINATOR     = 

OBJECT_NAME    = SL-8 R/B
OBJECT_ID      = 1985-006B
CENTER_NAME    = EARTH
REF_FRAME      = TEME
TIME_SYSTEM    = UTC
MEAN_ELEMENT_THEORY = SGP/SGP4

EPOCH          = 2025-12-23T02:43:04.140768
MEAN_MOTION    = 14.37727180
ECCENTRICITY   = .00191353
INCLINATION    = 74.0460
RA_OF_ASC_NODE = 42.0494
ARG_OF_PERICENTER = 332.0988
MEAN_ANOMALY   = 58.5548

EPHEMERIS_TYPE = 0
CLASSIFICATION_TYPE = U
NORAD_CAT_ID   = 15483
ELEMENT_SET_NO = 999
REV_AT_EPOCH   = 14302
BSTAR          = .97783724E-4
MEAN_MOTION_DOT = .268E-5
MEAN_MOTION_DDOT = 0

CCSDS_OMM_VERS = 2.0
CREATION_DATE  = 
ORIGINATOR     = 

OBJECT_NAME    = SL-12 R/B(2)
OBJECT_ID      = 1985-042D
CENTER_NAME    = EARTH
REF_FRAME      = TEME
TIME_SYSTEM    = UTC
MEAN_ELEMENT_THEORY = SGP/SGP4

EPOCH          = 2025-12-22T21:04:30.701568
MEAN_MOTION    = 14.21954854
ECCENTRICITY   = .00373566
INCLINATION    = 71.1073
RA_OF_ASC_NODE = 250.0020
ARG_OF_PERICENTER = 246.5821
MEAN_ANOMALY   = 185.8862

EPHEMERIS_TYPE = 0
CLASSIFICATION_TYPE = U
NORAD_CAT_ID   = 15772
ELEMENT_SET_NO = 999
REV_AT_EPOCH   = 10347
BSTAR          = .42440661E-4
MEAN_MOTION_DOT = .46E-6
MEAN_MOTION_DDOT = 0

CCSDS_OMM_VERS = 2.0
CREATION_DATE  = 
ORIGINATOR     = 

OBJECT_NAME    = SL-14 R/B
OBJECT_ID      = 1985-069B
CENTER_NAME    = EARTH
REF_FRAME      = TEME
TIME_SYSTEM    = UTC
MEAN_ELEMENT_THEORY = SGP/SGP4

EPOCH          = 2025-12-22T19:11:34.387584
MEAN_MOTION    = 14.86335324
ECCENTRICITY   = .00203387
INCLINATION    = 82.5273
RA_OF_ASC_NODE = 97.2460
ARG_OF_PERICENTER = 87.5919
MEAN_ANOMALY   = 272.7626

EPHEMERIS_TYPE = 0
CLASSIFICATION_TYPE = U
NORAD_CAT_ID   = 15945
ELEMENT_SET_NO = 999
REV_AT_EPOCH   = 16141
BSTAR          = .51985037E-4
MEAN_MOTION_DOT = .484E-5
MEAN_MOTION_DDOT = 0

CCSDS_OMM_VERS = 2.0
CREATION_DATE  = 
ORIGINATOR     = 

OBJECT_NAME    = SL-16 R/B
OBJECT_ID      = 1985-097B
CENTER_NAME    = EARTH
REF_FRAME      = TEME
TIME_SYSTEM    = UTC
MEAN_ELEMENT_THEORY = SGP/SGP4

EPOCH          = 2025-12-23T05:43:20.728704
MEAN_MOTION    = 14.16587754
ECCENTRICITY   = .00073837
INCLINATION    = 71.0038
RA_OF_ASC_NODE = 301.5003
ARG_OF_PERICENTER = 353.9692
MEAN_ANOMALY   = 108.7310

EPHEMERIS_TYPE = 0
CLASSIFICATION_TYPE = U
NORAD_CAT_ID   = 16182
ELEMENT_SET_NO = 999
REV_AT_EPOCH   = 7640
BSTAR          = -.39808203E-4
MEAN_MOTION_DOT = -.127E-5
MEAN_MOTION_DDOT = 0

CCSDS_OMM_VERS = 2.0
CREATION_DATE  = 
ORIGINATOR     = 

OBJECT_NAME    = SL-14 R/B
OBJECT_ID      = 1986-006B
CENTER_NAME    = EARTH
REF_FRAME      = TEME
TIME_SYSTEM    = UTC
MEAN_ELEMENT_THEORY = SGP/SGP4

EPOCH          = 2025-12-23T04:47:36.346272
MEAN_MOTION    = 14.86684123
ECCENTRICITY   = .00770892
INCLINATION    = 82.5269
RA_OF_ASC_NODE = 331.7084
ARG_OF_PERICENTER = 165.0754
MEAN_ANOMALY   = 195.2765

EPHEMERIS_TYPE = 0
CLASSIFICATION_TYPE = U
NORAD_CAT_ID   = 16496
ELEMENT_SET_NO = 999
REV_AT_EPOCH   = 13784
BSTAR          = .57697097E-4
MEAN_MOTION_DOT = .568E-5
MEAN_MOTION_DDOT = 0

CCSDS_OMM_VERS = 2.0
CREATION_DATE  = 
ORIGINATOR     = 

OBJECT_NAME    = COSMOS 1743
OBJECT_ID      = 1986-034A
CENTER_NAME    = EARTH
REF_FRAME      = TEME
TIME_SYSTEM    = UTC
MEAN_ELEMENT_THEORY = SGP/SGP4

EPOCH          = 2025-12-23T03:51:48.612384
MEAN_MOTION    = 15.52718050
ECCENTRICITY   = .00049567
INCLINATION    = 82.5349
RA_OF_ASC_NODE = 153.7628
ARG_OF_PERICENTER = 208.7255
MEAN_ANOMALY   = 151.3725

EPHEMERIS_TYPE = 0
CLASSIFICATION_TYPE = U
NORAD_CAT_ID   = 16719
ELEMENT_SET_NO = 999
REV_AT_EPOCH   = 16835
BSTAR          = .49498417E-3
MEAN_MOTION_DOT = .30661E-3
MEAN_MOTION_DDOT = 0

